[Satellite]
VERSION=1.1
NAME=LO-74
NICKNAME=LO-74
TLE1=1 39440U 13066AA  22342.32595996  .00003005  00000+0  40681-3 0  9996
TLE2=2 39440  97.7498 292.8343 0076333 287.9190  71.3709 14.77694029485952
STATUS=0
